OBJECT_NAME,OBJECT_ID,EPOCH,MEAN_MOTION,ECCENTRICITY,INCLINATION,RA_OF_ASC_NODE,ARG_OF_PERICENTER,MEAN_ANOMALY,EPHEMERIS_TYPE,CLASSIFICATION_TYPE,NORAD_CAT_ID,ELEMENT_SET_NO,REV_AT_EPOCH,BSTAR,MEAN_MOTION_DOT,MEAN_MOTION_DDOT
OSCAR 7 (AO-7),1974-089B,2026-06-24T23:09:59.759136,12.53698160,.0012636,101.9899,189.2930,115.7171,315.2652,0,U,7530,999,36149,.64341E-4,-.36E-6,0
PHASE 3B (AO-10),1983-058B,2026-06-23T16:21:57.137184,2.05872578,.60085647,25.9176,218.4895,117.4551,314.9460,0,U,14129,999,29562,0,-.85E-6,0
UOSAT 2 (UO-11),1984-021B,2026-06-23T20:47:24.218592,14.90797521,.00082183,97.8059,140.3663,151.7331,208.4334,0,U,14781,999,25812,.11662378E-3,.1092E-4,0
LUSAT (LO-19),1990-005G,2026-06-24T23:54:19.223712,14.34125258,.0011577,98.8847,198.0168,177.8494,182.2741,0,U,20442,999,90351,.53001E-4,.102E-5,0
EYESAT A (AO-27),1993-061C,2026-06-25T04:20:35.012256,14.30944177,.0009517,98.6877,243.5916,79.1910,281.0343,0,U,22825,999,70814,.46862E-4,.79E-6,0
ITAMSAT (IO-26),1993-061D,2026-06-25T03:47:30.178752,14.31371311,.0009921,98.6825,243.4869,64.2862,295.9344,0,U,22826,999,70845,.48577E-4,.84E-6,0
RADIO ROSTO (RS15),1994-085A,2026-06-25T00:13:24.388320,11.27583413,.0156204,64.8179,290.5658,2.4278,357.7371,0,U,23439,999,29678,-.10565E-3,-.46E-6,0
JAS-2 (FO-29),1996-046B,2026-06-25T03:33:17.275968,13.53274732,.0350915,98.5234,23.9293,75.8351,288.1508,0,U,24278,999,47424,.17093E-4,-.16E-6,0
TECHSAT 1B (GO-32),1998-043D,2026-06-23T22:45:24.588000,14.24429485,.00013897,99.0070,167.8775,150.1095,210.0162,0,U,25397,999,45229,.36578906E-4,.38E-6,0
ISS (ZARYA),1998-067A,2026-06-25T04:30:07.020000,15.49415960,.0004409,51.6326,260.4913,228.8642,131.1966,0,U,25544,999,57299,.17725E-3,.947E-4,0
PCSAT (NO-44),2001-043C,2026-06-25T04:35:47.964768,14.31958480,.0006049,67.0494,223.5692,265.0177,95.0235,0,U,26931,999,29159,.62978E-4,.86E-6,0
SAUDISAT 1C (SO-50),2002-058C,2026-06-25T04:18:46.446336,14.83062534,.0075079,64.5519,104.2569,260.9817,98.2786,0,U,27607,999,26564,.12668E-3,.928E-5,0
CUTE-1 (CO-55),2003-031E,2026-06-24T23:24:16.614720,14.24339992,.0010007,98.6736,184.4362,156.0422,204.1225,0,U,27844,999,19278,.13189E-3,.261E-5,0
CUBESAT XI-IV (CO-57),2003-031J,2026-06-24T23:13:17.051808,14.23624582,.0009537,98.6767,184.1351,174.0960,186.0333,0,U,27848,999,19248,.11865E-3,.227E-5,0
MOZHAETS 4 (RS22),2003-042A,2026-06-25T05:37:54.041664,14.73478873,.001,98.3476,0.8208,240.8202,230.4835,0,U,27939,999,21673,.13401E-3,.817E-5,0
CUBESAT XI-V,2005-043F,2026-06-24T06:21:49.633920,14.72647893,.00141293,98.2991,331.0356,178.0583,182.0681,0,U,28895,999,10279,.19577932E-3,.1196E-4,0
CUTE-1.7+APD II (CO-65),2008-021C,2026-06-25T04:53:00.930336,15.09522910,.0008998,97.8276,157.7888,15.0140,345.1353,0,U,32785,999,98640,.35067E-3,.5562E-4,0
SEEDS II (CO-66),2008-021J,2026-06-24T23:15:27.685152,15.32990296,.0000309,97.7519,174.2392,241.1908,118.9302,0,U,32791,999,98848,.6175E-3,.19623E-3,0
YUBILEINY (RS30),2008-025A,2026-06-25T03:30:37.543968,12.43179858,.0018612,82.5048,350.4885,295.6319,64.2838,0,U,32953,999,82068,.28088E-3,.49E-6,0
KKS-1 (KISEKI),2009-002H,2026-06-25T03:36:08.430912,14.83142417,.0006361,98.1187,98.7185,264.3562,95.6926,0,U,33499,999,93737,.15989E-3,.1248E-4,0
SWISSCUBE,2009-051B,2026-06-24T00:14:56.767200,14.62492428,.00064478,98.4031,83.0175,180.0638,180.0563,0,U,35932,999,89015,.15858503E-3,.754E-5,0
BEESAT-1,2009-051C,2026-06-23T04:50:47.229792,14.61728503,.00045989,98.3960,81.8178,195.0342,165.0722,0,U,35933,999,89006,.13338749E-3,.616E-5,0
ITUPSAT1,2009-051E,2026-06-24T07:03:47.026656,14.60449650,.00066045,98.4043,82.1112,208.5040,151.5799,0,U,35935,999,88977,.13593293E-3,.61E-5,0
XIWANG-1 (HOPE-1),2009-072B,2026-06-25T03:32:49.043904,13.16441068,.0007029,100.4024,129.8527,211.8236,148.2453,0,U,36122,999,79405,.11307E-2,.387E-5,0
O/OREOS (USA 219),2010-062C,2026-06-25T02:21:49.887648,14.93774803,.0012842,71.9701,62.4189,46.2089,314.0141,0,U,37224,999,11782,.20305E-3,.2094E-4,0
JUGNU,2011-058B,2026-06-23T22:46:54.346368,14.13778314,.00185331,19.9603,267.3482,150.5150,4.5959,0,U,37839,999,75998,.62833446E-4,.388E-5,0
SRMSAT,2011-058D,2026-06-25T05:27:08.898048,14.11577108,.0011711,19.9735,10.8048,292.6715,223.4173,0,U,37841,999,75895,.55867E-4,.368E-5,0
STRAND-1,2013-009E,2026-06-24T22:09:29.791872,14.37167384,.0008147,98.3924,355.9672,200.1736,159.9130,0,U,39090,999,69817,.10254E-3,.262E-5,0
ZACUBE-1 (TSHEPISOSAT),2013-066B,2026-06-25T03:20:30.042240,15.01227073,.0041882,97.8051,138.5170,220.5392,139.2711,0,U,39417,999,68192,.23876E-3,.3058E-4,0
GOMX-1,2013-066Q,2026-06-25T03:40:01.367904,14.69483868,.012989,97.6486,16.1126,52.2580,309.0313,0,U,39430,999,67108,.22914E-3,.1495E-4,0
